STARLINK-1365           
1 45590U 20025BM  23288.59404614  .00009078  00000+0  62763-3 0  9998
2 45590  53.0550  79.5603 0001552  97.4426 262.6739 15.06396803193052
STARLINK-1441           
1 45658U 20035B   23288.56825059  .00008359  00000+0  57938-3 0  9990
2 45658  53.0555  39.6813 0001449  95.3028 264.8126 15.06399655186685
STARLINK-1442           
1 45659U 20035C   23288.58669968  .00008834  00000+0  61115-3 0  9998
2 45659  53.0553  39.7620 0001522 102.3052 257.8107 15.06405064186671
STARLINK-1443           
1 45660U 20035D   23288.57930603  .00007116  00000+0  49615-3 0  9999
2 45660  53.0558  39.6360 0001435  90.7118 269.4035 15.06397088186680
STARLINK-1444           
1 45661U 20035E   23288.59773391  .00013110  00000+0  89720-3 0  9993
2 45661  53.0566  39.5463 0001643  99.0240 261.0935 15.06408547186682
STARLINK-1445           
1 45662U 20035F   23288.61247557  .00017522  00000+0  11922-2 0  9996
2 45662  53.0569  39.4843 0001449  83.8086 276.3069 15.06401763186680
STARLINK-1446           
1 45663U 20035G   23288.61616402 -.00000502  00000+0 -14781-4 0  9996
2 45663  53.0563  39.4647 0001453  92.7530 267.3626 15.06393506186689
STARLINK-1448           
1 45665U 20035J   23288.58299478  .00006573  00000+0  45971-3 0  9990
2 45665  53.0558  39.6170 0001777  96.4282 263.6910 15.06401163186675
STARLINK-1449           
1 45666U 20035K   23288.58334491 -.00150497  00000+0 -10283-1 0  9999
2 45666  53.0558  39.5739 0001459  78.2322 268.9312 15.06462040  5806
STARLINK-1450           
1 45667U 20035L   23288.58942137  .00005895  00000+0  41423-3 0  9993
2 45667  53.0560  39.6147 0001348  90.9267 269.1877 15.06406486186676
STARLINK-1451           
1 45668U 20035M   23288.55624603  .00001500  00000+0  11959-3 0  9996
2 45668  53.0562  39.7355 0001704 102.1101 258.0079 15.06399811186685
STARLINK-1452           
1 45669U 20035N   23288.60509699 -.00001793  00000+0 -10150-3 0  9998
2 45669  53.0551  39.5173 0001565  91.4234 268.6934 15.06396127186686
STARLINK-1453           
1 45670U 20035P   23288.53046919  .00011286  00000+0  77523-3 0  9996
2 45670  53.0558   9.8539 0001461 101.9129 258.2024 15.06406558186681
STARLINK-1454           
1 45671U 20035Q   23288.60879057  .00006307  00000+0  44184-3 0  9997
2 45671  53.0559  39.5018 0001354  97.5024 262.6119 15.06407420186672
STARLINK-1455           
1 45672U 20035R   23288.55257464  .00019506  00000+0  13238-2 0  9994
2 45672  53.0558   9.7517 0001332  80.8315 279.2825 15.06428210187094
STARLINK-1456           
1 45673U 20035S   23288.55719044  .00006923  00000+0  48314-3 0  9995
2 45673  53.0560  39.7366 0001481  97.2850 262.8308 15.06404900186682
STARLINK-1457           
1 45674U 20035T   23288.56456437  .00005882  00000+0  41341-3 0  9997
2 45674  53.0561  39.6960 0001735  97.6427 262.4760 15.06401496186651
STARLINK-1458           
1 45675U 20035U   23288.61984546  .00000849  00000+0  75878-4 0  9992
2 45675  53.0553  39.4488 0001346  93.8026 266.3117 15.06400292186659
STARLINK-1460           
1 45676U 20035V   23288.59036192  .00006463  00000+0  45226-3 0  9996
2 45676  53.0567  39.5812 0001455  92.6626 267.4530 15.06408430186643
STARLINK-1392           
1 45677U 20035W   23288.60142000  .00031111  00000+0  20970-2 0  9991
2 45677  53.0570  39.5342 0001376  88.9918 271.1229 15.06423407186682
STARLINK-1393           
1 45678U 20035X   23288.59497244  .00006779  00000+0  47358-3 0  9995
2 45678  53.0563  29.5622 0001456  88.4119 271.7037 15.06399422186808
STARLINK-1394           
1 45679U 20035Y   23288.59865833  .00027612  00000+0  18651-2 0  9991
2 45679  53.0556  29.5457 0001427  85.0562 275.0590 15.06405201186826
STARLINK-1395           
1 45680U 20035Z   23288.60603086  .00005929  00000+0  41656-3 0  9994
2 45680  53.0560  29.5173 0001665  90.4255 269.6924 15.06401138186815
STARLINK-1396           
1 45681U 20035AA  23288.54638944  .00038720  00000+0  21428-2 0  9998
2 45681  53.0518  27.0793 0000333 118.8859 241.2166 15.13502679186854
STARLINK-1397           
1 45682U 20035AB  23288.54336655  .00003197  00000+0  23340-3 0  9999
2 45682  53.0556  29.7949 0001489  91.6226 268.4934 15.06400543186402
STARLINK-1399           
1 45683U 20035AC  23288.59128504  .00000121  00000+0  26994-4 0  9990
2 45683  53.0563  29.5827 0001601  90.7617 269.3555 15.06397308186823
STARLINK-1401           
1 45684U 20035AD  23288.55875830  .00059574  00000+0  28042-2 0  9998
2 45684  53.0585  21.2631 0002908 343.0451  17.0445 15.18995876186947
STARLINK-1402           
1 45685U 20035AE  23288.59492041  .00010210  00000+0  58043-3 0  9991
2 45685  53.0550  24.3168 0001585  91.1804 268.9370 15.13448261186908
STARLINK-1404           
1 45686U 20035AF  23288.55811795  .00008188  00000+0  56795-3 0  9992
2 45686  53.0555  29.7286 0001450  96.7084 263.4070 15.06399642186419
STARLINK-1408           
1 45688U 20035AH  23288.52085621  .00012395  00000+0  50169-3 0  9996
2 45688  53.0877 359.2864 0004508 210.9635 149.1097 15.25077790187250
STARLINK-1413           
1 45689U 20035AJ  23288.57654467  .00021221  00000+0  14390-2 0  9995
2 45689  53.0567  29.6460 0001511  92.6748 267.4414 15.06406192186738
STARLINK-1414           
1 45690U 20035AK  23288.60237440  .00015046  00000+0  10268-2 0  9997
2 45690  53.0557  29.7498 0001566  72.2855 287.8304 15.06401862186760
STARLINK-1415           
1 45691U 20035AL  23288.56180057  .00008527  00000+0  59059-3 0  9992
2 45691  53.0557  29.7093 0001493 109.7624 250.3526 15.06403830186826
STARLINK-1416           
1 45692U 20035AM  23288.55443047  .00010988  00000+0  75541-3 0  9991
2 45692  53.0553  29.7400 0001503  98.1771 261.9388 15.06400146186811
STARLINK-1417           
1 45693U 20035AN  23288.57285897  .00024495  00000+0  16574-2 0  9999
2 45693  53.0563  29.6642 0001396  89.1770 270.9379 15.06404560186813
STARLINK-1420           
1 45695U 20035AQ  23288.50740934  .00008196  00000+0  56851-3 0  9995
2 45695  53.0554   9.9481 0001719  97.0798 263.0387 15.06397853187093
STARLINK-1422           
1 45696U 20035AR  23288.58391638  .00012007  00000+0  82347-3 0  9992
2 45696  53.0579  29.6157 0001703 106.8516 253.2660 15.06406904186812
STARLINK-1351           
1 45697U 20035AS  23288.49361394  .00008935  00000+0  61803-3 0  9998
2 45697  53.0555  10.0186 0001588 108.4832 251.6329 15.06394599187094
STARLINK-1370           
1 45698U 20035AT  23288.54795719  .00010114  00000+0  69690-3 0  9991
2 45698  53.0549   9.7648 0001443  81.6357 278.4795 15.06398720187106
STARLINK-1398           
1 45699U 20035AU  23288.60418739  .00008844  00000+0  61182-3 0  9998
2 45699  53.0563   9.5216 0001382 100.0442 260.0703 15.06402906187103
STARLINK-1400           
1 45700U 20035AV  23288.53415331  .00024286  00000+0  16434-2 0  9995
2 45700  53.0558   9.8379 0001360  92.9424 267.1720 15.06405888187095
STARLINK-1403           
1 45701U 20035AW  23288.49729933  .00032476  00000+0  21889-2 0  9997
2 45701  53.0550   9.9999 0001443  96.3396 263.7757 15.06403327186687
STARLINK-1405           
1 45702U 20035AX  23288.61156645  .00015068  00000+0  10283-2 0  9990
2 45702  53.0548   9.4877 0001826  77.9056 282.2137 15.06399038187107
STARLINK-1407           
1 45703U 20035AY  23288.60786993 -.00000956  00000+0 -45271-4 0  9994
2 45703  53.0556   9.5050 0001463 100.2541 259.8613 15.06394729187108
STARLINK-1409           
1 45704U 20035AZ  23288.56730327  .00006651  00000+0  46494-3 0  9993
2 45704  53.0559  39.6850 0001409  92.9787 267.1363 15.06404054186682
STARLINK-1410           
1 45705U 20035BA  23288.59405972  .00020281  00000+0  13766-2 0  9992
2 45705  53.0559  39.5680 0001343 106.1473 253.9664 15.06398262186679
STARLINK-1411           
1 45706U 20035BB  23288.51940173 -.00001798  00000+0 -10184-3 0  9998
2 45706  53.0554   9.9032 0001432  89.2943 270.8210 15.06395277187083
STARLINK-1412           
1 45707U 20035BC  23288.51570681 -.00022070  00000+0 -14695-2 0  9998
2 45707  53.0560   9.9184 0001750 101.0786 259.0400 15.06344869186686
STARLINK-1418           
1 45708U 20035BD  23288.55627121  .00031514  00000+0  21246-2 0  9996
2 45708  53.0548   9.7361 0001343  99.9735 260.1406 15.06408530187108
STARLINK-1421           
1 45709U 20035BE  23288.52678422  .00012460  00000+0  85377-3 0  9999
2 45709  53.0550   9.8734 0001496  93.6248 266.4912 15.06404902187050
STARLINK-1423           
1 45710U 20035BF  23288.52309452  .00002584  00000+0  19230-3 0  9996
2 45710  53.0557   9.8877 0001507  90.4004 269.7158 15.06398954187096
STARLINK-1433           
1 45711U 20035BG  23288.50467038  .00010323  00000+0  71083-3 0  9994
2 45711  53.0564   9.9692 0001628 103.3691 256.7480 15.06402137187083
STARLINK-1434           
1 45712U 20035BH  23288.50098416  .00004389  00000+0  31346-3 0  9998
2 45712  53.0552   9.9852 0001857  93.2515 266.8686 15.06392301186681
STARLINK-1436 (VISORSAT)
1 45713U 20035BJ  23288.58759731  .00003938  00000+0  28314-3 0  9991
2 45713  53.0560  29.5966 0001480  86.5857 273.5301 15.06400861186816
STARLINK-1437           
1 45714U 20035BK  23288.51204033  .00018032  00000+0  12261-2 0  9999
2 45714  53.0557   9.9357 0001384  86.7378 273.3769 15.06406751186687
STARLINK-1461           
1 45730U 20038A   23288.52312051  .00057843  00000+0  38699-2 0  9997
2 45730  53.0546 209.8819 0001742 100.6381 259.4804 15.06404752184148
STARLINK-1465           
1 45731U 20038B   23288.20612394  .00053775  00000+0  36048-2 0  9992
2 45731  53.0553 211.3025 0001585 124.2141 235.8998 15.06367053184082
STARLINK-1466           
1 45732U 20038C   23288.52680120  .00023936  00000+0  16210-2 0  9995
2 45732  53.0547 209.8672 0001391  89.6880 270.4269 15.06385674184136
STARLINK-1467           
1 45733U 20038D   23288.43809592  .00017236  00000+0  70881-3 0  9993
2 45733  53.0745 181.4381 0008204  72.8202 287.3692 15.24247538184538
